0 COSMOS 2251 DEB
1 34065U 93036KC  13281.71323160  .00000241  00000-0  93926-4 0  8020
2 34065 074.0364 143.1202 0017981 250.7247 173.9096 14.34791284243580
0 COSMOS 2251 DEB
1 34065U 93036KC  13284.03303435  .00000293  00000-0  11245-3 0  8032
2 34065 074.0361 138.8703 0017922 246.0967 276.0888 14.34793163243915
0 COSMOS 2251 DEB
1 34065U 93036KC  13286.05351097  .00000297  00000-0  11374-3 0  8041
2 34065 074.0358 135.1687 0017874 242.1353 272.1397 14.34794271244200
0 COSMOS 2251 DEB
1 34065U 93036KC  13288.27738693  .00000391  00000-0  14689-3 0  8056
2 34065 074.0356 131.0942 0017827 237.7206 238.8378 14.34796382244520
0 COSMOS 2251 DEB
1 34065U 93036KC  13290.56216007  .00000327  00000-0  12423-3 0  8065
2 34065 074.0357 126.9080 0017755 233.1777 160.1070 14.34798118244851
0 COSMOS 2251 DEB
1 34065U 93036KC  13292.58843789  .00000359  00000-0  13562-3 0  8073
2 34065 074.0359 123.1954 0017687 229.1263 186.2360 14.34799367245142
0 COSMOS 2251 DEB
1 34065U 93036KC  13294.61123611  .00000394  00000-0  14776-3 0  8082
2 34065 074.0360 119.4891 0017622 225.1440 194.3411 14.34800932245434
